{
    "links": {
        "self": "http://www.neowsapp.com/rest/v1/neo/3714587?api_key=iIulBulltgU6a56xZRHN4H3l9WmuAYTsLGpBGhQ2"
    },
    "id": "3714587",
    "neo_reference_id": "3714587",
    "name": "(2015 FN120)",
    "designation": "2015 FN120",
    "nasa_jpl_url": "http://ssd.jpl.nasa.gov/sbdb.cgi?sstr=3714587",
    "absolute_magnitude_h": 23.5,
    "estimated_diameter": {
        "kilometers": {
            "estimated_diameter_min": 0.0530340723,
            "estimated_diameter_max": 0.1185877909
        },
        "meters": {
            "estimated_diameter_min": 53.0340723319,
            "estimated_diameter_max": 118.5877908577
        },
        "miles": {
            "estimated_diameter_min": 0.0329538346,
            "estimated_diameter_max": 0.0736870142
        },
        "feet": {
            "estimated_diameter_min": 173.9963058693,
            "estimated_diameter_max": 389.0675677576
        }
    },
    "is_potentially_hazardous_asteroid": false,
    "close_approach_data": [
        {
            "close_approach_date": "2015-03-21",
            "close_approach_date_full": "2015-Mar-21 23:44",
            "epoch_date_close_approach": 1426981440000,
            "relative_velocity": {
                "kilometers_per_second": "15.6344315156",
                "kilometers_per_hour": "56283.9534562874",
                "miles_per_hour": "34972.6598573248"
            },
            "miss_distance": {
                "astronomical": "0.0513851859",
                "lunar": "19.9888373151",
                "kilometers": "7687114.360194033",
                "miles": "4776551.3717943354"
            },
            "orbiting_body": "Earth"
        },
        {
            "close_approach_date": "2018-04-07",
            "close_approach_date_full": "2018-Apr-07 07:12",
            "epoch_date_close_approach": 1523085120000,
            "relative_velocity": {
                "kilometers_per_second": "23.5170588381",
                "kilometers_per_hour": "84661.4118173332",
                "miles_per_hour": "52605.3089150535"
            },
            "miss_distance": {
                "astronomical": "0.3091499402",
                "lunar": "120.2593267378",
                "kilometers": "46248172.564547374",
                "miles": "28737281.8661428012"
            },
            "orbiting_body": "Earth"
        },
        {
            "close_approach_date": "2099-10-11",
            "close_approach_date_full": "2099-Oct-11 19:26",
            "epoch_date_close_approach": 4095429960000,
            "relative_velocity": {
                "kilometers_per_second": "17.4198949371",
                "kilometers_per_hour": "62711.6217733908",
                "miles_per_hour": "38966.5629846939"
            },
            "miss_distance": {
                "astronomical": "0.0395413991",
                "lunar": "15.3816042499",
                "kilometers": "5915309.082179917",
                "miles": "3675602.6237081746"
            },
            "orbiting_body": "Mars"
        },
        {
            "close_approach_date": "2106-03-05",
            "close_approach_date_full": "2106-Mar-05 17:04",
            "epoch_date_close_approach": 4297251840000,
            "relative_velocity": {
                "kilometers_per_second": "11.5819621341",
                "kilometers_per_hour": "41695.0636825901",
                "miles_per_hour": "25907.6910976627"
            },
            "miss_distance": {
                "astronomical": "0.1097416287",
                "lunar": "42.6894935643",
                "kilometers": "16417113.903850869",
                "miles": "10201121.5475612322"
            },
            "orbiting_body": "Earth"
        },
        {
            "close_approach_date": "2109-03-28",
            "close_approach_date_full": "2109-Mar-28 23:47",
            "epoch_date_close_approach": 4393957620000,
            "relative_velocity": {
                "kilometers_per_second": "17.6102847674",
                "kilometers_per_hour": "63397.0251626576",
                "miles_per_hour": "39392.445996208"
            },
            "miss_distance": {
                "astronomical": "0.1079126923",
                "lunar": "41.9780373047",
                "kilometers": "16143508.914045401",
                "miles": "10031111.2903764938"
            },
            "orbiting_body": "Earth"
        }
    ],
    "orbital_data": {
        "orbit_id": "9",
        "orbit_determination_date": "2017-08-10 06:18:58",
        "first_observation_date": "2015-03-21",
        "last_observation_date": "2015-04-23",
        "data_arc_in_days": 33,
        "observations_used": 66,
        "orbit_uncertainty": "7",
        "minimum_orbit_intersection": ".0312764",
        "jupiter_tisserand_invariant": "3.474",
        "epoch_osculation": "2459000.5",
        "eccentricity": ".6184345274170827",
        "semi_major_axis": "2.098427029923052",
        "inclination": "5.015965264003611",
        "ascending_node_longitude": "18.48965109073392",
        "orbital_period": "1110.297174313442",
        "perihelion_distance": ".8006873013533566",
        "perihelion_argument": "97.7732827563612",
        "aphelion_distance": "3.396166758492746",
        "perihelion_time": "2459284.042484213375",
        "mean_anomaly": "268.0648886817769",
        "mean_motion": ".3242375179623491",
        "equinox": "J2000",
        "orbit_class": {
            "orbit_class_type": "APO",
            "orbit_class_description": "Near-Earth asteroid orbits which cross the Earth’s orbit similar to that of 1862 Apollo",
            "orbit_class_range": "a (semi-major axis) > 1.0 AU; q (perihelion) < 1.017 AU"
        }
    },
    "is_sentry_object": false
}